NORAD_CAT_ID,OBJECT_NAME,OBJECT_TYPE,EPOCH,MEAN_MOTION,ECCENTRICITY,INCLINATION,RA_OF_ASC_NODE,ARG_OF_PERICENTER,MEAN_ANOMALY,BSTAR,MEAN_MOTION_DOT,MEAN_MOTION_DDOT,TLE_LINE0,TLE_LINE1,TLE_LINE2,SEMIMAJOR_AXIS,PERIOD,APOGEE,PERIGEE,DECAYED
52850.0,STARLINK-4187,PAYLOAD,2023-04-10 02:33:26,15.08839768,0.0001467,53.2151,133.2189,87.2198,272.8962,1.781e-05,-5e-08,0.0,0 STARLINK-4187,1 52850U 22062W   23100.10655347 -.00000005  00000-0  17810-4 0  9996,2 52850  53.2151 133.2189 0001467  87.2198 272.8962 15.08839768 45560,6917.881,95.438,540.761,538.731,0.0
52850.0,STARLINK-4187,PAYLOAD,2023-04-10 07:19:35,15.08839825,0.000144,53.2152,132.3265,88.8706,271.2451,1.5966e-05,-3.4e-07,0.0,0 STARLINK-4187,1 52850U 22062W   23100.30527332 -.00000034  00000-0  15966-4 0  9992,2 52850  53.2152 132.3265 0001440  88.8706 271.2451 15.08839825 45109,6917.881,95.438,540.742,538.75,0.0
52850.0,STARLINK-4187,PAYLOAD,2023-04-10 18:27:17,15.0883969,0.0001451,53.2154,130.2448,95.4431,264.6727,2.9287e-05,1.78e-06,0.0,0 STARLINK-4187,1 52850U 22062W   23100.76895247  .00000178  00000-0  29287-4 0  9994,2 52850  53.2154 130.2448 0001451  95.4431 264.6727 15.08839690 45171,6917.881,95.438,540.75,538.743,0.0
52850.0,STARLINK-4187,PAYLOAD,2023-04-11 08:45:45,15.08839675,0.0001479,53.2161,127.5686,103.675,256.4407,5.0866e-05,5.22e-06,0.0,0 STARLINK-4187,1 52850U 22062W   23101.36511176  .00000522  00000-0  50866-4 0  9997,2 52850  53.2161 127.5686 0001479 103.6750 256.4407 15.08839675 45265,6917.881,95.438,540.77,538.723,0.0
52850.0,STARLINK-4187,PAYLOAD,2023-04-11 18:18:04,15.08836728,0.000139,53.2158,125.7849,99.4411,260.6738,3.9782e-05,3.45e-06,0.0,0 STARLINK-4187,1 52850U 22062W   23101.76255458  .00000345  00000-0  39782-4 0  9996,2 52850  53.2158 125.7849 0001390  99.4411 260.6738 15.08836728 45327,6917.89,95.438,540.717,538.794,0.0
52850.0,STARLINK-4187,PAYLOAD,2023-04-12 07:01:10,15.08829561,0.0001461,53.2164,123.4061,101.9916,258.124,-2.3937e-05,-6.69e-06,0.0,0 STARLINK-4187,1 52850U 22062W   23102.29248304 -.00000669  00000-0 -23937-4 0  9993,2 52850  53.2164 123.4061 0001461 101.9916 258.1240 15.08829561 45409,6917.912,95.438,540.788,538.767,0.0
52850.0,STARLINK-4187,PAYLOAD,2023-04-13 10:02:43,15.08841231,0.0001387,53.2163,118.3511,95.7973,264.3178,6.2773e-05,7.11e-06,0.0,0 STARLINK-4187,1 52850U 22062W   23103.41855660  .00000711  00000-0  62773-4 0  9994,2 52850  53.2163 118.3511 0001387  95.7973 264.3178 15.08841231 45576,6917.877,95.437,540.701,538.782,0.0
52850.0,STARLINK-4187,PAYLOAD,2023-04-13 17:59:39,15.08838293,0.0001331,53.2158,116.863,95.73,264.3844,3.1755e-05,2.17e-06,0.0,0 STARLINK-4187,1 52850U 22062W   23103.74975948  .00000217  00000-0  31755-4 0  9999,2 52850  53.2158 116.8630 0001331  95.7300 264.3844 15.08838293 46113,6917.886,95.438,540.671,538.83,0.0
52850.0,STARLINK-4187,PAYLOAD,2023-04-14 08:18:07,15.08837029,0.0001307,53.2156,114.1863,87.3208,272.7933,9.6935e-05,1.255e-05,0.0,0 STARLINK-4187,1 52850U 22062W   23104.34592075  .00001255  00000-0  96935-4 0  9996,2 52850  53.2156 114.1863 0001307  87.3208 272.7933 15.08837029 45710,6917.889,95.438,540.659,538.85,0.0
52850.0,STARLINK-4187,PAYLOAD,2023-04-15 00:11:59,15.08832023,0.0001304,53.215,111.2121,88.0877,272.0264,0.00012125,1.642e-05,0.0,0 STARLINK-4187,1 52850U 22062W   23105.00832472  .00001642  00000-0  12125-3 0  9996,2 52850  53.2150 111.2121 0001304  88.0877 272.0264 15.08832023 46301,6917.905,95.438,540.672,538.868,0.0
52850.0,STARLINK-4187,PAYLOAD,2023-04-15 06:33:31,15.08833515,0.0001213,53.2147,110.0227,88.9987,271.1144,0.00015119,2.119e-05,0.0,0 STARLINK-4187,1 52850U 22062W   23105.27328390  .00002119  00000-0  15119-3 0  9990,2 52850  53.2147 110.0227 0001213  88.9987 271.1144 15.08833515 45854,6917.9,95.438,540.604,538.926,0.0
52850.0,STARLINK-4187,PAYLOAD,2023-04-15 17:41:13,15.08843058,0.0001244,53.215,107.9409,87.2063,272.9071,4.6456e-05,4.52e-06,0.0,0 STARLINK-4187,1 52850U 22062W   23105.73695929  .00000452  00000-0  46456-4 0  9993,2 52850  53.2150 107.9409 0001244  87.2063 272.9071 15.08843058 46410,6917.871,95.437,540.597,538.875,0.0
52850.0,STARLINK-4187,PAYLOAD,2023-04-16 06:24:18,15.08845087,0.0001273,53.2155,105.5619,91.347,268.7668,8.7251e-05,1.101e-05,0.0,0 STARLINK-4187,1 52850U 22062W   23106.26687658  .00001101  00000-0  87251-4 0  9992,2 52850  53.2155 105.5619 0001273  91.3470 268.7668 15.08845087 46006,6917.865,95.437,540.61,538.849,0.0
52850.0,STARLINK-4187,PAYLOAD,2023-04-17 04:39:42,15.08828785,0.0001196,53.2158,101.3984,94.4895,265.6234,0.000149,2.084e-05,0.0,0 STARLINK-4187,1 52850U 22062W   23107.19424634  .00002084  00000-0  14900-3 0  9999,2 52850  53.2158 101.3984 0001196  94.4895 265.6234 15.08828785 46637,6917.915,95.438,540.607,538.952,0.0
52850.0,STARLINK-4187,PAYLOAD,2023-04-17 09:25:51,15.08840377,0.000124,53.2162,100.5058,97.4973,262.616,1.8134e-05,1e-08,0.0,0 STARLINK-4187,1 52850U 22062W   23107.39296190  .00000001  00000-0  18134-4 0  9996,2 52850  53.2162 100.5058 0001240  97.4973 262.6160 15.08840377 46664,6917.879,95.438,540.602,538.886,0.0
52850.0,STARLINK-4187,PAYLOAD,2023-04-18 09:16:39,15.08839278,0.0001373,53.217,96.0462,100.8654,259.2493,2.7213e-05,1.45e-06,0.0,0 STARLINK-4187,1 52850U 22062W   23108.38656399  .00000145  00000-0  27213-4 0  9994,2 52850  53.2170  96.0462 0001373 100.8654 259.2493 15.08839278 46325,6917.883,95.438,540.697,538.798,0.0
52850.0,STARLINK-4187,PAYLOAD,2023-04-18 15:38:11,15.08837444,0.0001363,53.2171,94.8567,100.2203,259.8942,3.2916e-05,2.36e-06,0.0,0 STARLINK-4187,1 52850U 22062W   23108.65152528  .00000236  00000-0  32916-4 0  9996,2 52850  53.2171  94.8567 0001363 100.2203 259.8942 15.08837444 46363,6917.888,95.438,540.696,538.81,0.0
52850.0,STARLINK-4187,PAYLOAD,2023-04-19 07:32:03,15.08839528,0.0001282,53.2165,91.8841,90.5487,269.5652,9.0096e-05,1.146e-05,0.0,0 STARLINK-4187,1 52850U 22062W   23109.31392415  .00001146  00000-0  90096-4 0  9995,2 52850  53.2165  91.8841 0001282  90.5487 269.5652 15.08839528 46465,6917.882,95.438,540.634,538.86,0.0
52850.0,STARLINK-4187,PAYLOAD,2023-04-19 15:28:59,15.08836493,0.0001262,53.2164,90.3976,92.6504,267.4633,2.5699e-05,1.21e-06,0.0,0 STARLINK-4187,1 52850U 22062W   23109.64512805  .00000121  00000-0  25699-4 0  9997,2 52850  53.2164  90.3976 0001262  92.6504 267.4633 15.08836493 46518,6917.891,95.438,540.629,538.883,0.0
52850.0,STARLINK-4187,PAYLOAD,2023-04-20 08:58:13,15.08839709,0.0001183,53.2162,87.1263,93.6693,266.4434,3.8158e-05,3.19e-06,0.0,0 STARLINK-4187,1 52850U 22062W   23110.37376773  .00000319  00000-0  38158-4 0  9994,2 52850  53.2162  87.1263 0001183  93.6693 266.4434 15.08839709 46624,6917.881,95.438,540.565,538.928,0.0
52850.0,STARLINK-4187,PAYLOAD,2023-04-20 15:19:46,15.08833883,0.000105,53.216,85.9361,93.5746,266.5367,-1.0764e-05,-4.59e-06,0.0,0 STARLINK-4187,1 52850U 22062W   23110.63873310 -.00000459  00000-0 -10764-4 0  9992,2 52850  53.2160  85.9361 0001050  93.5746 266.5367 15.08833883 46665,6917.899,95.438,540.49,539.038,0.0
52850.0,STARLINK-4187,PAYLOAD,2023-04-21 05:38:14,15.08837764,0.0001157,53.2159,83.2592,87.6306,272.4819,-4.5869e-05,-1.018e-05,0.0,0 STARLINK-4187,1 52850U 22062W   23111.23489486 -.00001018  00000-0 -45869-4 0  9992,2 52850  53.2159  83.2592 0001157  87.6306 272.4819 15.08837764 46754,6917.887,95.438,540.553,538.952,0.0
52850.0,STARLINK-4187,PAYLOAD,2023-04-21 07:13:38,15.08838087,0.0001173,53.216,82.9619,87.7803,272.3324,-4.2209e-05,-9.59e-06,0.0,0 STARLINK-4187,1 52850U 22062W   23111.30113467 -.00000959  00000-0 -42209-4 0  9991,2 52850  53.2160  82.9619 0001173  87.7803 272.3324 15.08838087 46763,6917.886,95.438,540.563,538.94,0.0
52850.0,STARLINK-4187,PAYLOAD,2023-04-22 07:04:23,15.08854897,0.0001134,53.2168,78.5022,86.4673,273.6449,0.00012779,1.747e-05,0.0,0 STARLINK-4187,1 52850U 22062W   23112.29471450  .00001747  00000-0  12779-3 0  9991,2 52850  53.2168  78.5022 0001134  86.4673 273.6449 15.08854897 46914,6917.835,95.437,540.484,538.915,0.0
52850.0,STARLINK-4187,PAYLOAD,2023-04-22 15:01:20,15.08837989,0.0001583,53.2163,77.0141,86.0745,274.0428,3.5957e-05,2.84e-06,0.0,0 STARLINK-4187,1 52850U 22062W   23112.62592840  .00000284  00000-0  35957-4 0  9994,2 52850  53.2163  77.0141 0001583  86.0745 274.0428 15.08837989 47454,6917.887,95.438,540.847,538.656,0.0
52850.0,STARLINK-4187,PAYLOAD,2023-04-23 06:55:12,15.08833254,0.000115,53.2166,74.0412,96.6921,263.4202,-6.0747e-05,-1.254e-05,0.0,0 STARLINK-4187,1 52850U 22062W   23113.28833556 -.00001254  00000-0 -60747-4 0  9994,2 52850  53.2166  74.0412 0001150  96.6921 263.4202 15.08833254 47068,6917.901,95.438,540.562,538.97,0.0
52850.0,STARLINK-4187,PAYLOAD,2023-04-24 06:45:57,15.08857229,0.0001529,53.2165,69.5807,89.4345,270.6823,-5.0958e-05,-1.099e-05,0.0,0 STARLINK-4187,1 52850U 22062W   23114.28191864 -.00001099  00000-0 -50958-4 0  9994,2 52850  53.2165  69.5807 0001529  89.4345 270.6823 15.08857229 47218,6917.828,95.436,540.75,538.635,0.0
52850.0,STARLINK-4187,PAYLOAD,2023-04-25 03:25:58,15.08845896,0.0001304,53.2172,65.7122,94.795,265.3191,0.00013979,1.938e-05,0.0,0 STARLINK-4187,1 52850U 22062W   23115.14303498  .00001938  00000-0  13979-3 0  9999,2 52850  53.2172  65.7122 0001304  94.7950 265.3191 15.08845896 47830,6917.862,95.437,540.629,538.825,0.0
52850.0,STARLINK-4187,PAYLOAD,2023-04-26 06:27:34,15.08820907,9.31e-05,53.2168,60.6608,92.9272,267.1827,-0.00027807,-4.708e-05,0.0,0 STARLINK-4187,1 52850U 22062W   23116.26915439 -.00004708  00000-0 -27807-3 0  9992,2 52850  53.2168  60.6608 0000931  92.9272 267.1827 15.08820907 47517,6917.939,95.439,540.448,539.16,0.0
52850.0,STARLINK-4187,PAYLOAD,2023-04-27 03:07:34,15.08841566,0.0001125,53.2178,56.7967,116.5959,243.5149,-5.7524e-06,-3.79e-06,0.0,0 STARLINK-4187,1 52850U 22062W   23117.13025674 -.00000379  00000-0 -57524-5 0  9993,2 52850  53.2178  56.7967 0001125 116.5959 243.5149 15.08841566 48131,6917.876,95.437,540.519,538.962,0.0
